{
  "type": "FeatureCollection",
  "features": [
    {
      "type": "Feature",
      "properties": {
        "norad_id": 41330,
        "name": "COSMOS 2514 (751)",
        "group": "glo-ops",
        "lat": 33.083666321980076,
        "lon": -22.894575151436044,
        "alt_km": 19157.307454279333,
        "timestamp": "2025-12-08T19:31:49.071475+00:00",
        "meta_object_name": "COSMOS 2514 (751)",
        "meta_object_id": "2016-008A",
        "meta_epoch": "2025-12-07T19:50:46.203360",
        "meta_mean_motion": 2.13102518,
        "meta_eccentricity": 0.00122791,
        "meta_inclination": 65.1366,
        "meta_ra_of_asc_node": 319.5722,
        "meta_arg_of_pericenter": 220.0209,
        "meta_mean_anomaly": 139.8828,
        "meta_ephemeris_type": 0,
        "meta_classification_type": "U",
        "meta_norad_cat_id": 41330,
        "meta_element_set_no": 999,
        "meta_rev_at_epoch": 7654,
        "meta_bstar": 0,
        "meta_mean_motion_dot": -4.9e-07,
        "meta_mean_motion_ddot": 0,
        "tle_line1": "1 41330U 16008A   25341.82692365 -.00000049  00000+0  00000+0 0  9994",
        "tle_line2": "2 41330  65.1366 319.5722 0012279 220.0209 139.8828  2.13102518 76549"
      },
      "geometry": {
        "type": "Point",
        "coordinates": [
          -22.894575151436044,
          33.083666321980076
        ]
      }
    },
    {
      "type": "Feature",
      "properties": {
        "norad_id": 42939,
        "name": "COSMOS 2522 (752)",
        "group": "glo-ops",
        "lat": 17.04426078152932,
        "lon": 9.790219627102596,
        "alt_km": 19121.02409947741,
        "timestamp": "2025-12-08T19:31:49.071485+00:00",
        "meta_object_name": "COSMOS 2522 (752)",
        "meta_object_id": "2017-055A",
        "meta_epoch": "2025-12-07T04:42:21.698208",
        "meta_mean_motion": 2.13101873,
        "meta_eccentricity": 0.00064632,
        "meta_inclination": 64.0758,
        "meta_ra_of_asc_node": 198.418,
        "meta_arg_of_pericenter": 225.3159,
        "meta_mean_anomaly": 134.7149,
        "meta_ephemeris_type": 0,
        "meta_classification_type": "U",
        "meta_norad_cat_id": 42939,
        "meta_element_set_no": 999,
        "meta_rev_at_epoch": 6388,
        "meta_bstar": 0,
        "meta_mean_motion_dot": 6.1e-07,
        "meta_mean_motion_ddot": 0,
        "tle_line1": "1 42939U 17055A   25341.19608447  .00000061  00000+0  00000+0 0  9994",
        "tle_line2": "2 42939  64.0758 198.4180 0006463 225.3159 134.7149  2.13101873 63886"
      },
      "geometry": {
        "type": "Point",
        "coordinates": [
          9.790219627102596,
          17.04426078152932
        ]
      }
    },
    {
      "type": "Feature",
      "properties": {
        "norad_id": 43508,
        "name": "COSMOS 2527 (756)",
        "group": "glo-ops",
        "lat": -10.063448312139382,
        "lon": -95.0897658308674,
        "alt_km": 19113.263909276295,
        "timestamp": "2025-12-08T19:31:49.071495+00:00",
        "meta_object_name": "COSMOS 2527 (756)",
        "meta_object_id": "2018-053A",
        "meta_epoch": "2025-12-07T03:45:49.475232",
        "meta_mean_motion": 2.13102044,
        "meta_eccentricity": 0.00087312,
        "meta_inclination": 65.4694,
        "meta_ra_of_asc_node": 80.3184,
        "meta_arg_of_pericenter": 225.1381,
        "meta_mean_anomaly": 134.8008,
        "meta_ephemeris_type": 0,
        "meta_classification_type": "U",
        "meta_norad_cat_id": 43508,
        "meta_element_set_no": 999,
        "meta_rev_at_epoch": 5818,
        "meta_bstar": 0,
        "meta_mean_motion_dot": -1.2e-07,
        "meta_mean_motion_ddot": 0,
        "tle_line1": "1 43508U 18053A   25341.15682263 -.00000012  00000+0  00000+0 0  9997",
        "tle_line2": "2 43508  65.4694  80.3184 0008731 225.1381 134.8008  2.13102044 58184"
      },
      "geometry": {
        "type": "Point",
        "coordinates": [
          -95.0897658308674,
          -10.063448312139382
        ]
      }
    },
    {
      "type": "Feature",
      "properties": {
        "norad_id": 43687,
        "name": "COSMOS 2529 (757)",
        "group": "glo-ops",
        "lat": 53.87496099195335,
        "lon": -22.281510801142353,
        "alt_km": 19137.685044628965,
        "timestamp": "2025-12-08T19:31:49.071505+00:00",
        "meta_object_name": "COSMOS 2529 (757)",
        "meta_object_id": "2018-086A",
        "meta_epoch": "2025-12-03T00:44:36.468960",
        "meta_mean_motion": 2.13101888,
        "meta_eccentricity": 0.00072932,
        "meta_inclination": 64.2917,
        "meta_ra_of_asc_node": 199.2166,
        "meta_arg_of_pericenter": 254.4618,
        "meta_mean_anomaly": 105.5545,
        "meta_ephemeris_type": 0,
        "meta_classification_type": "U",
        "meta_norad_cat_id": 43687,
        "meta_element_set_no": 999,
        "meta_rev_at_epoch": 5510,
        "meta_bstar": 0,
        "meta_mean_motion_dot": 1.06e-06,
        "meta_mean_motion_ddot": 0,
        "tle_line1": "1 43687U 18086A   25337.03097765  .00000106  00000+0  00000+0 0  9993",
        "tle_line2": "2 43687  64.2917 199.2166 0007293 254.4618 105.5545  2.13101888 55102"
      },
      "geometry": {
        "type": "Point",
        "coordinates": [
          -22.281510801142353,
          53.87496099195335
        ]
      }
    },
    {
      "type": "Feature",
      "properties": {
        "norad_id": 44299,
        "name": "COSMOS 2534 (758)",
        "group": "glo-ops",
        "lat": -58.298917675432726,
        "lon": 70.06010162945945,
        "alt_km": 19117.018837147003,
        "timestamp": "2025-12-08T19:31:49.071515+00:00",
        "meta_object_name": "COSMOS 2534 (758)",
        "meta_object_id": "2019-030A",
        "meta_epoch": "2025-12-08T05:49:23.609568",
        "meta_mean_motion": 2.13102077,
        "meta_eccentricity": 0.00089492,
        "meta_inclination": 64.3654,
        "meta_ra_of_asc_node": 199.0446,
        "meta_arg_of_pericenter": 283.6677,
        "meta_mean_anomaly": 248.9744,
        "meta_ephemeris_type": 0,
        "meta_classification_type": "U",
        "meta_norad_cat_id": 44299,
        "meta_element_set_no": 999,
        "meta_rev_at_epoch": 5085,
        "meta_bstar": 0,
        "meta_mean_motion_dot": 4.9e-07,
        "meta_mean_motion_ddot": 0,
        "tle_line1": "1 44299U 19030A   25342.24263437  .00000049  00000+0  00000+0 0  9999",
        "tle_line2": "2 44299  64.3654 199.0446 0008949 283.6677 248.9744  2.13102077 50859"
      },
      "geometry": {
        "type": "Point",
        "coordinates": [
          70.06010162945945,
          -58.298917675432726
        ]
      }
    },
    {
      "type": "Feature",
      "properties": {
        "norad_id": 44850,
        "name": "COSMOS 2544 (759)",
        "group": "glo-ops",
        "lat": -47.02658978319004,
        "lon": -70.58659996042283,
        "alt_km": 19101.62041808565,
        "timestamp": "2025-12-08T19:31:49.071525+00:00",
        "meta_object_name": "COSMOS 2544 (759)",
        "meta_object_id": "2019-088A",
        "meta_epoch": "2025-12-05T05:23:01.027680",
        "meta_mean_motion": 2.1310179,
        "meta_eccentricity": 0.00137742,
        "meta_inclination": 65.456,
        "meta_ra_of_asc_node": 80.2099,
        "meta_arg_of_pericenter": 249.0312,
        "meta_mean_anomaly": 110.8229,
        "meta_ephemeris_type": 0,
        "meta_classification_type": "U",
        "meta_norad_cat_id": 44850,
        "meta_element_set_no": 999,
        "meta_rev_at_epoch": 4658,
        "meta_bstar": 0,
        "meta_mean_motion_dot": -2e-07,
        "meta_mean_motion_ddot": 0,
        "tle_line1": "1 44850U 19088A   25339.22431745 -.00000020  00000+0  00000+0 0  9998",
        "tle_line2": "2 44850  65.4560  80.2099 0013774 249.0312 110.8229  2.13101790 46580"
      },
      "geometry": {
        "type": "Point",
        "coordinates": [
          -70.58659996042283,
          -47.02658978319004
        ]
      }
    },
    {
      "type": "Feature",
      "properties": {
        "norad_id": 45358,
        "name": "COSMOS 2545 (760)",
        "group": "glo-ops",
        "lat": 63.66655188670381,
        "lon": 33.943570573816004,
        "alt_km": 19152.000300328138,
        "timestamp": "2025-12-08T19:31:49.071547+00:00",
        "meta_object_name": "COSMOS 2545 (760)",
        "meta_object_id": "2020-018A",
        "meta_epoch": "2025-12-08T05:39:23.903712",
        "meta_mean_motion": 2.13102411,
        "meta_eccentricity": 0.00117234,
        "meta_inclination": 64.4721,
        "meta_ra_of_asc_node": 319.1278,
        "meta_arg_of_pericenter": 249.0767,
        "meta_mean_anomaly": 110.7922,
        "meta_ephemeris_type": 0,
        "meta_classification_type": "U",
        "meta_norad_cat_id": 45358,
        "meta_element_set_no": 999,
        "meta_rev_at_epoch": 4459,
        "meta_bstar": 0,
        "meta_mean_motion_dot": -5e-07,
        "meta_mean_motion_ddot": 0,
        "tle_line1": "1 45358U 20018A   25342.23569333 -.00000050  00000+0  00000+0 0  9990",
        "tle_line2": "2 45358  64.4721 319.1278 0011723 249.0767 110.7922  2.13102411 44590"
      },
      "geometry": {
        "type": "Point",
        "coordinates": [
          33.943570573816004,
          63.66655188670381
        ]
      }
    }
  ]
}